OBJECT_NAME,OBJECT_ID,EPOCH,MEAN_MOTION,ECCENTRICITY,INCLINATION,RA_OF_ASC_NODE,ARG_OF_PERICENTER,MEAN_ANOMALY,EPHEMERIS_TYPE,CLASSIFICATION_TYPE,NORAD_CAT_ID,ELEMENT_SET_NO,REV_AT_EPOCH,BSTAR,MEAN_MOTION_DOT,MEAN_MOTION_DDOT
LEMUR-2-STARLIGHT,2025-276DY,2026-06-26T04:20:53.456064,14.99135300,.0014727,97.5246,247.5126,102.4206,257.8666,0,U,66783,999,3154,.6103E-3,.7384E-4,0
LEMUR-2-TARTIFLETTE,2025-276DZ,2026-06-26T04:18:30.705984,14.99148252,.0013708,97.5249,247.5186,109.3857,250.8849,0,U,66784,999,3154,.51985E-3,.628E-4,0
LEMUR-2-VUKASIN,2025-276EA,2026-06-26T03:58:11.138880,15.00423586,.0005348,97.5296,247.8241,101.9871,258.1953,0,U,66785,999,3149,.12705E-3,.154E-4,0
LEMUR-2-HOTSPUR-TOM,2025-276EB,2026-06-26T04:08:41.872704,14.99048440,.0014821,97.5245,247.4912,101.5607,258.7281,0,U,66786,999,3147,.54028E-3,.6515E-4,0
LEMUR-2-MYRA,2025-276EC,2026-06-26T03:08:20.942880,15.00364361,.0017617,97.5221,247.7182,112.6190,247.6900,0,U,66787,999,3155,.66315E-3,.8299E-4,0
LEMUR-2 FIKRETDENGIZ,2026-004A,2026-06-26T00:12:28.006272,14.88384035,.0010547,97.8014,175.4311,108.3193,251.9172,0,U,67363,999,2459,.53284E-3,.4888E-4,0
TWILIGHT-1 OBJECT B,2026-004B,2026-06-25T23:16:15.292416,14.87730445,.0010249,97.8064,175.4040,99.6605,260.5770,0,U,67364,999,2459,.20095E-3,.1779E-4,0
LEMUR-2-MARIO-SOUSA,2026-004C,2026-06-25T23:47:14.299008,14.88578056,.0010093,97.7984,175.4095,109.2589,250.9720,0,U,67365,999,2460,.50855E-3,.4685E-4,0
LEMUR-2-SONNENBLUME,2026-004E,2026-06-25T22:09:53.307360,14.88357402,.000963,97.7984,175.3240,110.9056,249.3193,0,U,67367,999,2459,.32875E-3,.2992E-4,0
LEMUR-2-WOBLER,2026-004F,2026-06-25T23:35:33.530208,14.88571541,.0009937,97.8037,175.5137,101.8508,258.3824,0,U,67368,999,2460,.41722E-3,.3833E-4,0
LEMUR-2-GRAM-E-SUE,2026-004H,2026-06-25T23:22:33.389184,14.88506945,.0008723,97.7971,175.3893,111.9713,248.2432,0,U,67370,999,2460,.24956E-3,.2266E-4,0
LEMUR-2-KATIE,2026-004AA,2026-06-25T22:50:47.456160,14.90098524,.0004746,97.8034,175.8554,75.0788,285.0955,0,U,67387,999,2461,.40599E-3,.387E-4,0
LEMUR-2-HCS-BAZUS,2026-004AB,2026-06-25T22:49:08.332032,14.90149435,.0004252,97.8021,175.8345,74.0114,286.1572,0,U,67388,999,2461,.65833E-3,.632E-4,0
