LEMUR-2-STARLIGHT       
1 66783U 25276DY  26177.18117426  .00007384  00000+0  61030-3 0  9999
2 66783  97.5246 247.5126 0014727 102.4206 257.8666 14.99135300 31546
LEMUR-2-TARTIFLETTE     
1 66784U 25276DZ  26177.17952206  .00006280  00000+0  51985-3 0  9994
2 66784  97.5249 247.5186 0013708 109.3857 250.8849 14.99148252 31548
LEMUR-2-VUKASIN         
1 66785U 25276EA  26177.16540670  .00001540  00000+0  12705-3 0  9993
2 66785  97.5296 247.8241 0005348 101.9871 258.1953 15.00423586 31491
LEMUR-2-HOTSPUR-TOM     
1 66786U 25276EB  26177.17270686  .00006515  00000+0  54028-3 0  9993
2 66786  97.5245 247.4912 0014821 101.5607 258.7281 14.99048440 31473
LEMUR-2-MYRA            
1 66787U 25276EC  26177.13079795  .00008299  00000+0  66315-3 0  9991
2 66787  97.5221 247.7182 0017617 112.6190 247.6900 15.00364361 31556
LEMUR-2 FIKRETDENGIZ    
1 67363U 26004A   26177.00865748  .00004888  00000+0  53284-3 0  9990
2 67363  97.8014 175.4311 0010547 108.3193 251.9172 14.88384035 24591
TWILIGHT-1 OBJECT B     
1 67364U 26004B   26176.96962144  .00001779  00000+0  20095-3 0  9993
2 67364  97.8064 175.4040 0010249  99.6605 260.5770 14.87730445 24594
LEMUR-2-MARIO-SOUSA     
1 67365U 26004C   26176.99113772  .00004685  00000+0  50855-3 0  9998
2 67365  97.7984 175.4095 0010093 109.2589 250.9720 14.88578056 24600
LEMUR-2-SONNENBLUME     
1 67367U 26004E   26176.92353365  .00002992  00000+0  32875-3 0  9998
2 67367  97.7984 175.3240 0009630 110.9056 249.3193 14.88357402 24590
LEMUR-2-WOBLER          
1 67368U 26004F   26176.98302697  .00003833  00000+0  41722-3 0  9993
2 67368  97.8037 175.5137 0009937 101.8508 258.3824 14.88571541 24604
LEMUR-2-GRAM-E-SUE      
1 67370U 26004H   26176.97399756  .00002266  00000+0  24956-3 0  9996
2 67370  97.7971 175.3893 0008723 111.9713 248.2432 14.88506945 24601
LEMUR-2-KATIE           
1 67387U 26004AA  26176.95193815  .00003870  00000+0  40599-3 0  9993
2 67387  97.8034 175.8554 0004746  75.0788 285.0955 14.90098524 24614
LEMUR-2-HCS-BAZUS       
1 67388U 26004AB  26176.95079088  .00006320  00000+0  65833-3 0  9990
2 67388  97.8021 175.8345 0004252  74.0114 286.1572 14.90149435 24618
